[{"OBJECT_NAME":"STARLINK-36173","OBJECT_ID":"2025-304U","EPOCH":"2026-03-09T16:26:35.018592","MEAN_MOTION":14.99143783,"ECCENTRICITY":0.00036048,"INCLINATION":70.0013,"RA_OF_ASC_NODE":174.4831,"ARG_OF_PERICENTER":269.9682,"MEAN_ANOMALY":90.1065,"EPHEMERIS_TYPE":0,"CLASSIFICATION_TYPE":"U","NORAD_CAT_ID":67210,"ELEMENT_SET_NO":999,"REV_AT_EPOCH":1388,"BSTAR":0.00033818283,"MEAN_MOTION_DOT":4.03e-5,"MEAN_MOTION_DDOT":0},{"OBJECT_NAME":"CZ-4B DEB","OBJECT_ID":"1999-057CV","EPOCH":"2026-03-09T19:57:46.813248","MEAN_MOTION":14.85904834,"ECCENTRICITY":0.00580026,"INCLINATION":98.3828,"RA_OF_ASC_NODE":180.8293,"ARG_OF_PERICENTER":13.7764,"MEAN_ANOMALY":105.3903,"EPHEMERIS_TYPE":0,"CLASSIFICATION_TYPE":"U","NORAD_CAT_ID":26207,"ELEMENT_SET_NO":999,"REV_AT_EPOCH":36891,"BSTAR":0.0014962351,"MEAN_MOTION_DOT":0.00013405,"MEAN_MOTION_DDOT":0}]
